ASTRA 2E                
1 39285U 13056A   26185.51302839  .00000163  00000+0  00000+0 0  9993
2 39285   0.0723 317.7136 0002755 162.5208  15.5027  1.00275893 46591
FM-6                    
1 39360U 13058A   26183.70211649 -.00000005  00000+0  00000+0 0  9992
2 39360   0.0160  40.7600 0001960 138.6453 237.7772  1.00271889 46228
RADUGA-1M 3             
1 39375U 13062A   26183.73212435  .00000161  00000+0  00000+0 0  9992
2 39375   5.9949  72.1589 0001877 282.0892 225.0751  1.00273797 46267
SES-8                   
1 39460U 13071A   26186.45267740 -.00000256  00000+0  00000+0 0  9994
2 39460   0.0364 266.7689 0002894 196.3345  78.3152  1.00271417 44619
INMARSAT 5-F1           
1 39476U 13073A   26183.86988020  .00000038  00000+0  00000+0 0  9993
2 39476   0.0185  28.4066 0000581 336.8665 291.4245  1.00272744 45735
TKSAT-1 (TUPAC KATARI)  
1 39481U 13075A   26186.55943839 -.00000181  00000+0  00000+0 0  9999
2 39481   0.0403 127.6668 0002618 331.1348 298.9465  1.00269948 45786
EXPRESS-AM5             
1 39487U 13077A   26186.31924736 -.00000267  00000+0  00000+0 0  9991
2 39487   0.0290 270.1698 0000258 160.4646 107.6421  1.00272154 46541
GSAT-14                 
1 39498U 14001A   26186.59137403 -.00000063  00000+0  00000+0 0  9992
2 39498   0.0379 227.5883 0001419 339.3269   3.5460  1.00270945 45565
THAICOM 6               
1 39500U 14002A   26186.52096106 -.00000107  00000+0  00000+0 0  9993
2 39500   0.0649 106.7230 0004662  13.4419  69.4025  1.00270378 45640
ABS-2                   
1 39508U 14006A   26186.59154736 -.00000072  00000+0  00000+0 0  9997
2 39508   0.0295  75.7935 0003648  13.0706 122.5966  1.00271603 45467
ATHENA-FIDUS            
1 39509U 14006B   26184.58815476  .00000165  00000+0  00000+0 0  9992
2 39509   0.0305  95.7359 0001624  20.1277  55.2824  1.00273035 45259
TURKSAT 4A              
1 39522U 14007A   26186.58500517  .00000160  00000+0  00000+0 0  9992
2 39522   0.0797 281.9243 0000752 340.5590 273.6937  1.00269968 45158
EXPRESS-AT1             
1 39612U 14010A   26186.51818772  .00000017  00000+0  00000+0 0  9995
2 39612   0.3023  85.4887 0004581  47.3164  41.8582  1.00308315 45002
EXPRESS-AT2             
1 39613U 14010B   26185.51848843  .00000000  00000+0  00000+0 0  9999
2 39613   0.0194  31.2706 0000219  97.2986  36.6114  1.00270819 44670
AMAZONAS 4A             
1 39616U 14011A   26183.78172192 -.00000241  00000+0  00000+0 0  9995
2 39616   0.0699 210.9618 0004941 278.3284 358.9301  1.00269478 44879
ASTRA 5B                
1 39617U 14011B   26183.85175605  .00000148  00000+0  00000+0 0  9991
2 39617   0.0771 302.4799 0002214 165.1332 143.4211  1.00274657 44823
IRNSS-1B                
1 39635U 14017A   26185.73213617  .00000137  00000+0  00000+0 0  9990
2 39635  28.8946 240.1001 0022943 195.0922 166.1625  1.00272447 44979
LUCH-5V                 
1 39727U 14023A   26186.68691587 -.00000256  00000+0  00000+0 0  9993
2 39727   5.1759  69.5609 0002690  61.6233 134.4978  1.00268671 44544
KAZSAT-3                
1 39728U 14023B   26183.77476564  .00000071  00000+0  00000+0 0  9991
2 39728   0.0106  10.0372 0000339 160.4347  87.7460  1.00274193 42613
EUTELSAT 3B             
1 39773U 14030A   26186.57720515  .00000034  00000+0  00000+0 0  9997
2 39773   0.0616  12.0382 0004048  90.0261  32.3892  1.00272253 44258
ASIASAT 8 (AMOS-7)      
1 40107U 14046A   26186.52626589 -.00000319  00000+0  00000+0 0  9995
2 40107   0.0304 275.5990 0001558 184.2741 118.4165  1.00272830102332
ASIASAT 6               
1 40141U 14052A   26186.60047405 -.00000348  00000+0  00000+0 0  9995
2 40141   0.0233 280.1471 0000784 207.4672 132.0684  1.00272424 43261
OPTUS 10                
1 40146U 14054A   26184.59281078 -.00000136  00000+0  00000+0 0  9999
2 40146   0.0560 293.6774 0002098 169.1762 188.1804  1.00270440 43192
MEASAT-3B               
1 40147U 14054B   26186.62270437 -.00000227  00000+0  00000+0 0  9994
2 40147   0.0271  25.2777 0002538  63.4419 150.5531  1.00270396 43097
HIMAWARI-8              
1 40267U 14060A   26186.59698866 -.00000262  00000+0  00000+0 0  9999
2 40267   0.0175  34.0764 0000944  84.3005 160.8038  1.00270538 42946
IRNSS-1C                
1 40269U 14061A   26186.30795644 -.00000151  00000+0  00000+0 0  9990
2 40269   6.5628  88.5856 0022119   4.4363  24.1363  1.00273902 42879
INTELSAT 30 (IS-30)     
1 40271U 14062A   26186.21468787 -.00000138  00000+0  00000+0 0  9994
2 40271   0.0182  48.3724 0001695 343.0020 234.0864  1.00276491  6977
ARSAT 1                 
1 40272U 14062B   26183.65528010 -.00000249  00000+0  00000+0 0  9999
2 40272   0.0392 290.9521 0001999 168.7347 345.0962  1.00270091 42783
EUTELSAT 53A            
1 40277U 14064A   26186.24975388  .00000112  00000+0  00000+0 0  9996
2 40277   0.0170 300.9294 0001290 247.7332 237.4945  1.00269059 41749
GSAT-16                 
1 40332U 14078A   26183.88998366  .00000096  00000+0  00000+0 0  9992
2 40332   0.0472 262.0432 0007812 186.4293 207.9354  1.00271348 42267
DIRECTV 14              
1 40333U 14078B   26186.55701171 -.00000112  00000+0  00000+0 0  9996
2 40333   0.0117  38.6757 0000109 342.0332   4.1209  1.00271312 42220
